ONEWEB-0504             
1 54122U 22138K   24156.12369975 -.00000040  00000+0 -13258-3 0  9997
2 54122  87.9147  92.8400 0002071  91.9946 268.1424 13.19723837 79695
ONEWEB-0505             
1 54123U 22138L   24155.81727271  .00000008  00000+0 -11958-4 0  9999
2 54123  87.9146  92.8962 0002544  97.0528 263.0894 13.19724294 78766
ONEWEB-0506             
1 54124U 22138M   24155.79199782  .00000065  00000+0  13094-3 0  9991
2 54124  87.9144  92.8981 0002220  87.2069 272.9317 13.19723445 78753
ONEWEB-0507             
1 54125U 22138N   24155.81253406  .00000047  00000+0  85663-4 0  9991
2 54125  87.9155  92.9141 0002373  85.5436 274.5967 13.19724422 78804
ONEWEB-0508             
1 54126U 22138P   24156.34007366 -.00000305  00000+0 -79314-3 0  9997
2 54126  87.9152  92.8027 0002515  86.9786 273.1635 13.19725014 79722
ONEWEB-0509             
1 54127U 22138Q   24155.55664847  .00000110  00000+0  24348-3 0  9992
2 54127  87.9146  92.9468 0002186  85.8423 274.2959 13.19724014 79591
ONEWEB-0510             
1 54128U 22138R   24155.50283173 -.00000087  00000+0 -24645-3 0  9992
2 54128  87.9225  62.3983 0002075  66.2003 293.9348 13.20770520 81113
ONEWEB-0511             
1 54129U 22138S   24155.55348663  .00000150  00000+0  34213-3 0  9995
2 54129  87.9144  92.9502 0001852  91.6328 268.5017 13.19724260 79626
